[{"OBJECT_NAME":"STARLINK-3534","OBJECT_ID":"2022-029AJ","EPOCH":"2026-03-09T06:22:39.234432","MEAN_MOTION":15.08841795,"ECCENTRICITY":0.00014115,"INCLINATION":53.2177,"RA_OF_ASC_NODE":81.0237,"ARG_OF_PERICENTER":94.5069,"MEAN_ANOMALY":265.6085,"EPHEMERIS_TYPE":0,"CLASSIFICATION_TYPE":"U","NORAD_CAT_ID":52120,"ELEMENT_SET_NO":999,"REV_AT_EPOCH":22073,"BSTAR":-6.091861e-6,"MEAN_MOTION_DOT":-3.85e-6,"MEAN_MOTION_DDOT":0},{"OBJECT_NAME":"PEGASUS DEB","OBJECT_ID":"1994-029BC","EPOCH":"2026-03-09T22:00:19.479168","MEAN_MOTION":15.02669201,"ECCENTRICITY":0.00619411,"INCLINATION":81.9229,"RA_OF_ASC_NODE":10.1044,"ARG_OF_PERICENTER":202.7728,"MEAN_ANOMALY":222.9696,"EPHEMERIS_TYPE":0,"CLASSIFICATION_TYPE":"U","NORAD_CAT_ID":24007,"ELEMENT_SET_NO":999,"REV_AT_EPOCH":60998,"BSTAR":0.00034526552,"MEAN_MOTION_DOT":4.826e-5,"MEAN_MOTION_DDOT":0}]
